ONEWEB-0215             
1 48800U 21045AK  26077.29208987  .00000031  00000+0  48298-4 0  9997
2 48800  87.8940 277.3201 0002319 102.9278 257.2111 13.15549398232345
ONEWEB-0216             
1 48801U 21045AL  26077.07339704 -.00000011  00000+0 -63235-4 0  9994
2 48801  87.8929 277.3825 0001504  92.7347 267.3955 13.15551511232329
ONEWEB-0239             
1 48802U 21045AM  26077.07817833  .00000222  00000+0  55510-3 0  9997
2 48802  87.8925 277.3955 0002471  98.3591 261.7820 13.15548478232368
ONEWEB-0249             
1 48967U 21060A   26077.16051959 -.00001026  00000+0 -27173-2 0  9993
2 48967  87.9014 246.8779 0001851  98.6419 261.4922 13.16593482227638
ONEWEB-0250             
1 48968U 21060B   26076.99134493 -.00000006  00000+0 -43067-4 0  9998
2 48968  87.9012 244.9639 0002461  77.0162 283.1249 13.25828261228130
ONEWEB-0252             
1 48970U 21060D   26076.96341741 -.00000042  00000+0 -14352-3 0  9998
2 48970  87.9010 246.9094 0001564 104.7528 255.3776 13.16594231227654
ONEWEB-0253             
1 48971U 21060E   26077.02833380 -.00000071  00000+0 -21870-3 0  9997
2 48971  87.9013 246.9022 0001779  97.1325 263.0008 13.16595809227596
ONEWEB-0254             
1 48972U 21060F   26076.96183561 -.00000026  00000+0 -10253-3 0  9992
2 48972  87.9016 246.9105 0002044  98.4410 261.6953 13.16593923227584
ONEWEB-0255             
1 48973U 21060G   26077.22780694 -.00001106  00000+0 -29280-2 0  9992
2 48973  87.9012 246.8668 0001992  97.5693 262.5664 13.16598191227691
ONEWEB-0256             
1 48974U 21060H   26077.02595674 -.00000182  00000+0 -51076-3 0  9995
2 48974  87.9014 246.9140 0001597  98.8549 261.2763 13.16594937227639
ONEWEB-0257             
1 48975U 21060J   26076.98241620  .00000063  00000+0  13067-3 0  9993
2 48975  87.9012 246.9064 0001783 102.0614 258.0717 13.16593731227589
ONEWEB-0258             
1 48976U 21060K   26076.98400882  .00000111  00000+0  25680-3 0  9999
2 48976  87.9010 246.9175 0001751  96.1816 263.9514 13.16596880227592
ONEWEB-0259             
1 48977U 21060L   26076.90166485  .00000052  00000+0  10244-3 0  9994
2 48977  87.9012 246.9329 0001858  97.8560 262.2782 13.16594272227613
ONEWEB-0260             
1 48978U 21060M   26076.96894445 -.00000004  00000+0 -43947-4 0  9991
2 48978  87.9013 246.9255 0001379 108.6099 251.5182 13.16595119227604
ONEWEB-0261             
1 48979U 21060N   26077.16684205  .00000021  00000+0  20724-4 0  9991
2 48979  87.9009 246.8854 0001966 106.1244 254.0103 13.16593246227689
ONEWEB-0262             
1 48980U 21060P   26077.22307339  .00000103  00000+0  23621-3 0  9999
2 48980  87.9012 246.8570 0001951  93.5994 266.5360 13.16594592227650
