[{"OBJECT_NAME":"ONEWEB-0215","OBJECT_ID":"2021-045AK","EPOCH":"2026-03-18T07:00:36.564768","MEAN_MOTION":13.15549398,"ECCENTRICITY":0.00023192,"INCLINATION":87.894,"RA_OF_ASC_NODE":277.3201,"ARG_OF_PERICENTER":102.9278,"MEAN_ANOMALY":257.2111,"EPHEMERIS_TYPE":0,"CLASSIFICATION_TYPE":"U","NORAD_CAT_ID":48800,"ELEMENT_SET_NO":999,"REV_AT_EPOCH":23234,"BSTAR":4.8297637e-5,"MEAN_MOTION_DOT":3.1e-7,"MEAN_MOTION_DDOT":0},{"OBJECT_NAME":"ONEWEB-0216","OBJECT_ID":"2021-045AL","EPOCH":"2026-03-18T01:45:41.504256","MEAN_MOTION":13.15551511,"ECCENTRICITY":0.00015049,"INCLINATION":87.8929,"RA_OF_ASC_NODE":277.3825,"ARG_OF_PERICENTER":92.7347,"MEAN_ANOMALY":267.3955,"EPHEMERIS_TYPE":0,"CLASSIFICATION_TYPE":"U","NORAD_CAT_ID":48801,"ELEMENT_SET_NO":999,"REV_AT_EPOCH":23232,"BSTAR":-6.3235251e-5,"MEAN_MOTION_DOT":-1.1e-7,"MEAN_MOTION_DDOT":0},{"OBJECT_NAME":"ONEWEB-0239","OBJECT_ID":"2021-045AM","EPOCH":"2026-03-18T01:52:34.607712","MEAN_MOTION":13.15548478,"ECCENTRICITY":0.00024719,"INCLINATION":87.8925,"RA_OF_ASC_NODE":277.3955,"ARG_OF_PERICENTER":98.3591,"MEAN_ANOMALY":261.782,"EPHEMERIS_TYPE":0,"CLASSIFICATION_TYPE":"U","NORAD_CAT_ID":48802,"ELEMENT_SET_NO":999,"REV_AT_EPOCH":23236,"BSTAR":0.00055509529,"MEAN_MOTION_DOT":2.22e-6,"MEAN_MOTION_DDOT":0},{"OBJECT_NAME":"ONEWEB-0249","OBJECT_ID":"2021-060A","EPOCH":"2026-03-18T03:51:08.892576","MEAN_MOTION":13.16593482,"ECCENTRICITY":0.00018515,"INCLINATION":87.9014,"RA_OF_ASC_NODE":246.8779,"ARG_OF_PERICENTER":98.6419,"MEAN_ANOMALY":261.4922,"EPHEMERIS_TYPE":0,"CLASSIFICATION_TYPE":"U","NORAD_CAT_ID":48967,"ELEMENT_SET_NO":999,"REV_AT_EPOCH":22763,"BSTAR":-0.0027172799,"MEAN_MOTION_DOT":-1.026e-5,"MEAN_MOTION_DDOT":0},{"OBJECT_NAME":"ONEWEB-0250","OBJECT_ID":"2021-060B","EPOCH":"2026-03-17T23:47:32.201952","MEAN_MOTION":13.25828261,"ECCENTRICITY":0.00024616,"INCLINATION":87.9012,"RA_OF_ASC_NODE":244.9639,"ARG_OF_PERICENTER":77.0162,"MEAN_ANOMALY":283.1249,"EPHEMERIS_TYPE":0,"CLASSIFICATION_TYPE":"U","NORAD_CAT_ID":48968,"ELEMENT_SET_NO":999,"REV_AT_EPOCH":22813,"BSTAR":-4.3066999e-5,"MEAN_MOTION_DOT":-6.0e-8,"MEAN_MOTION_DDOT":0},{"OBJECT_NAME":"ONEWEB-0252","OBJECT_ID":"2021-060D","EPOCH":"2026-03-17T23:07:19.264224","MEAN_MOTION":13.16594231,"ECCENTRICITY":0.00015642,"INCLINATION":87.901,"RA_OF_ASC_NODE":246.9094,"ARG_OF_PERICENTER":104.7528,"MEAN_ANOMALY":255.3776,"EPHEMERIS_TYPE":0,"CLASSIFICATION_TYPE":"U","NORAD_CAT_ID":48970,"ELEMENT_SET_NO":999,"REV_AT_EPOCH":22765,"BSTAR":-0.00014351777,"MEAN_MOTION_DOT":-4.2e-7,"MEAN_MOTION_DDOT":0},{"OBJECT_NAME":"ONEWEB-0253","OBJECT_ID":"2021-060E","EPOCH":"2026-03-18T00:40:48.040320","MEAN_MOTION":13.16595809,"ECCENTRICITY":0.00017793,"INCLINATION":87.9013,"RA_OF_ASC_NODE":246.9022,"ARG_OF_PERICENTER":97.1325,"MEAN_ANOMALY":263.0008,"EPHEMERIS_TYPE":0,"CLASSIFICATION_TYPE":"U","NORAD_CAT_ID":48971,"ELEMENT_SET_NO":999,"REV_AT_EPOCH":22759,"BSTAR":-0.00021870272,"MEAN_MOTION_DOT":-7.1e-7,"MEAN_MOTION_DDOT":0},{"OBJECT_NAME":"ONEWEB-0254","OBJECT_ID":"2021-060F","EPOCH":"2026-03-17T23:05:02.596704","MEAN_MOTION":13.16593923,"ECCENTRICITY":0.00020449,"INCLINATION":87.9016,"RA_OF_ASC_NODE":246.9105,"ARG_OF_PERICENTER":98.441,"MEAN_ANOMALY":261.6953,"EPHEMERIS_TYPE":0,"CLASSIFICATION_TYPE":"U","NORAD_CAT_ID":48972,"ELEMENT_SET_NO":999,"REV_AT_EPOCH":22758,"BSTAR":-0.00010253026,"MEAN_MOTION_DOT":-2.6e-7,"MEAN_MOTION_DDOT":0},{"OBJECT_NAME":"ONEWEB-0255","OBJECT_ID":"2021-060G","EPOCH":"2026-03-18T05:28:02.519616","MEAN_MOTION":13.16598191,"ECCENTRICITY":0.00019926,"INCLINATION":87.9012,"RA_OF_ASC_NODE":246.8668,"ARG_OF_PERICENTER":97.5693,"MEAN_ANOMALY":262.5664,"EPHEMERIS_TYPE":0,"CLASSIFICATION_TYPE":"U","NORAD_CAT_ID":48973,"ELEMENT_SET_NO":999,"REV_AT_EPOCH":22769,"BSTAR":-0.0029279612,"MEAN_MOTION_DOT":-1.106e-5,"MEAN_MOTION_DDOT":0},{"OBJECT_NAME":"ONEWEB-0256","OBJECT_ID":"2021-060H","EPOCH":"2026-03-18T00:37:22.662336","MEAN_MOTION":13.16594937,"ECCENTRICITY":0.00015975,"INCLINATION":87.9014,"RA_OF_ASC_NODE":246.914,"ARG_OF_PERICENTER":98.8549,"MEAN_ANOMALY":261.2763,"EPHEMERIS_TYPE":0,"CLASSIFICATION_TYPE":"U","NORAD_CAT_ID":48974,"ELEMENT_SET_NO":999,"REV_AT_EPOCH":22763,"BSTAR":-0.00051075678,"MEAN_MOTION_DOT":-1.82e-6,"MEAN_MOTION_DDOT":0},{"OBJECT_NAME":"ONEWEB-0257","OBJECT_ID":"2021-060J","EPOCH":"2026-03-17T23:34:40.759680","MEAN_MOTION":13.16593731,"ECCENTRICITY":0.00017836,"INCLINATION":87.9012,"RA_OF_ASC_NODE":246.9064,"ARG_OF_PERICENTER":102.0614,"MEAN_ANOMALY":258.0717,"EPHEMERIS_TYPE":0,"CLASSIFICATION_TYPE":"U","NORAD_CAT_ID":48975,"ELEMENT_SET_NO":999,"REV_AT_EPOCH":22758,"BSTAR":0.00013067133,"MEAN_MOTION_DOT":6.3e-7,"MEAN_MOTION_DDOT":0},{"OBJECT_NAME":"ONEWEB-0258","OBJECT_ID":"2021-060K","EPOCH":"2026-03-17T23:36:58.362048","MEAN_MOTION":13.1659688,"ECCENTRICITY":0.00017516,"INCLINATION":87.901,"RA_OF_ASC_NODE":246.9175,"ARG_OF_PERICENTER":96.1816,"MEAN_ANOMALY":263.9514,"EPHEMERIS_TYPE":0,"CLASSIFICATION_TYPE":"U","NORAD_CAT_ID":48976,"ELEMENT_SET_NO":999,"REV_AT_EPOCH":22759,"BSTAR":0.00025679564,"MEAN_MOTION_DOT":1.11e-6,"MEAN_MOTION_DDOT":0},{"OBJECT_NAME":"ONEWEB-0259","OBJECT_ID":"2021-060L","EPOCH":"2026-03-17T21:38:23.843040","MEAN_MOTION":13.16594272,"ECCENTRICITY":0.00018585,"INCLINATION":87.9012,"RA_OF_ASC_NODE":246.9329,"ARG_OF_PERICENTER":97.856,"MEAN_ANOMALY":262.2782,"EPHEMERIS_TYPE":0,"CLASSIFICATION_TYPE":"U","NORAD_CAT_ID":48977,"ELEMENT_SET_NO":999,"REV_AT_EPOCH":22761,"BSTAR":0.0001024363,"MEAN_MOTION_DOT":5.2e-7,"MEAN_MOTION_DDOT":0},{"OBJECT_NAME":"ONEWEB-0260","OBJECT_ID":"2021-060M","EPOCH":"2026-03-17T23:15:16.800480","MEAN_MOTION":13.16595119,"ECCENTRICITY":0.00013791,"INCLINATION":87.9013,"RA_OF_ASC_NODE":246.9255,"ARG_OF_PERICENTER":108.6099,"MEAN_ANOMALY":251.5182,"EPHEMERIS_TYPE":0,"CLASSIFICATION_TYPE":"U","NORAD_CAT_ID":48978,"ELEMENT_SET_NO":999,"REV_AT_EPOCH":22760,"BSTAR":-4.3947435e-5,"MEAN_MOTION_DOT":-4.0e-8,"MEAN_MOTION_DDOT":0},{"OBJECT_NAME":"ONEWEB-0261","OBJECT_ID":"2021-060N","EPOCH":"2026-03-18T04:00:15.153120","MEAN_MOTION":13.16593246,"ECCENTRICITY":0.00019666,"INCLINATION":87.9009,"RA_OF_ASC_NODE":246.8854,"ARG_OF_PERICENTER":106.1244,"MEAN_ANOMALY":254.0103,"EPHEMERIS_TYPE":0,"CLASSIFICATION_TYPE":"U","NORAD_CAT_ID":48979,"ELEMENT_SET_NO":999,"REV_AT_EPOCH":22768,"BSTAR":2.0723686e-5,"MEAN_MOTION_DOT":2.1e-7,"MEAN_MOTION_DDOT":0},{"OBJECT_NAME":"ONEWEB-0262","OBJECT_ID":"2021-060P","EPOCH":"2026-03-18T05:21:13.540896","MEAN_MOTION":13.16594592,"ECCENTRICITY":0.00019514,"INCLINATION":87.9012,"RA_OF_ASC_NODE":246.857,"ARG_OF_PERICENTER":93.5994,"MEAN_ANOMALY":266.536,"EPHEMERIS_TYPE":0,"CLASSIFICATION_TYPE":"U","NORAD_CAT_ID":48980,"ELEMENT_SET_NO":999,"REV_AT_EPOCH":22765,"BSTAR":0.00023620737,"MEAN_MOTION_DOT":1.03e-6,"MEAN_MOTION_DDOT":0}]
